start=new Date('2022-01-06T00:00:00.000Z').valueOf();
sats=[{"CLASSIFICATION_TYPE":"U","PERIOD":"95.593","COUNTRY_CODE":"US","EPHEMERIS_TYPE":"0","TIME_SYSTEM":"UTC","MEAN_ANOMALY":"265.4762","NORAD_CAT_ID":"46071","ELEMENT_SET_NO":"999","EPOCH":"2022-01-05T15:32:13.488576","OBJECT_TYPE":"PAYLOAD","FILE":"3265018","ECCENTRICITY":"0.00012390","GP_ID":"193283954","SEMIMAJOR_AXIS":"6925.380","MEAN_MOTION_DDOT":"0.0000000000000","DECAY_DATE":null,"TLE_LINE2":"2 46071  53.0542  98.3127 0001239  94.6368 265.4762 15.06389833 79600","TLE_LINE1":"1 46071U 20055AW  22005.64737834 -.00000227  00000-0  36433-5 0  9997","LAUNCH_DATE":"2020-08-07","OBJECT_NAME":"STARLINK-1538","OBJECT_ID":"2020-055AW","REV_AT_EPOCH":"7960","MEAN_MOTION_DOT":"-0.00000227","MEAN_ELEMENT_THEORY":"SGP4","RCS_SIZE":"LARGE","RA_OF_ASC_NODE":"98.3127","PERIAPSIS":"546.387","INCLINATION":"53.0542","ARG_OF_PERICENTER":"94.6368","MEAN_MOTION":"15.06389833","APOAPSIS":"548.103","SITE":"AFETR","BSTAR":"0.00000364330000","CENTER_NAME":"EARTH","REF_FRAME":"TEME"},{"MEAN_MOTION_DOT":"-0.00000059","REV_AT_EPOCH":"7959","MEAN_ELEMENT_THEORY":"SGP4","LAUNCH_DATE":"2020-08-07","OBJECT_ID":"2020-055AX","OBJECT_NAME":"STARLINK-1539","BSTAR":"0.00001494900000","REF_FRAME":"TEME","CENTER_NAME":"EARTH","INCLINATION":"53.0569","PERIAPSIS":"546.356","RA_OF_ASC_NODE":"98.1890","RCS_SIZE":"LARGE","SITE":"AFETR","APOAPSIS":"548.111","MEAN_MOTION":"15.06393465","ARG_OF_PERICENTER":"73.6514","NORAD_CAT_ID":"46072","MEAN_ANOMALY":"286.4614","TIME_SYSTEM":"UTC","CLASSIFICATION_TYPE":"U","EPHEMERIS_TYPE":"0","COUNTRY_CODE":"US","PERIOD":"95.593","TLE_LINE2":"2 46072  53.0569  98.1890 0001267  73.6514 286.4614 15.06393465 79599","DECAY_DATE":null,"GP_ID":"193283702","SEMIMAJOR_AXIS":"6925.369","MEAN_MOTION_DDOT":"0.0000000000000","TLE_LINE1":"1 46072U 20055AX  22005.67223288 -.00000059  00000-0  14949-4 0  9994","ELEMENT_SET_NO":"999","FILE":"3265018","ECCENTRICITY":"0.00012670","EPOCH":"2022-01-05T16:08:00.920832","OBJECT_TYPE":"PAYLOAD"},{"LAUNCH_DATE":"2020-08-07","OBJECT_NAME":"STARLINK-1542","OBJECT_ID":"2020-055AY","REV_AT_EPOCH":"7957","MEAN_MOTION_DOT":"0.00001494","MEAN_ELEMENT_THEORY":"SGP4","RCS_SIZE":"LARGE","RA_OF_ASC_NODE":"99.0312","PERIAPSIS":"546.196","INCLINATION":"53.0541","ARG_OF_PERICENTER":"89.0351","MEAN_MOTION":"15.06400858","SITE":"AFETR","APOAPSIS":"548.225","BSTAR":"0.00011914000000","CENTER_NAME":"EARTH","REF_FRAME":"TEME","CLASSIFICATION_TYPE":"U","PERIOD":"95.592","COUNTRY_CODE":"US","EPHEMERIS_TYPE":"0","TIME_SYSTEM":"UTC","MEAN_ANOMALY":"271.0806","NORAD_CAT_ID":"46073","ELEMENT_SET_NO":"999","OBJECT_TYPE":"PAYLOAD","EPOCH":"2022-01-05T11:43:59.037600","ECCENTRICITY":"0.00014650","FILE":"3264673","GP_ID":"193251326","MEAN_MOTION_DDOT":"0.0000000000000","SEMIMAJOR_AXIS":"6925.346","DECAY_DATE":null,"TLE_LINE2":"2 46073  53.0541  99.0312 0001465  89.0351 271.0806 15.06400858 79575","TLE_LINE1":"1 46073U 20055AY  22005.48887775  .00001494  00000-0  11914-3 0  9992"},{"EPOCH":"2022-01-05T16:09:22.745088","OBJECT_TYPE":"PAYLOAD","FILE":"3265018","ECCENTRICITY":"0.00014490","ELEMENT_SET_NO":"999","TLE_LINE1":"1 46074U 20055AZ  22005.67317992 -.00000342  00000-0 -40378-5 0  9994","GP_ID":"193282704","SEMIMAJOR_AXIS":"6925.387","MEAN_MOTION_DDOT":"0.0000000000000","TLE_LINE2":"2 46074  53.0546  98.1934 0001449  75.3697 284.7453 15.06387507 79590","DECAY_DATE":null,"COUNTRY_CODE":"US","PERIOD":"95.593","EPHEMERIS_TYPE":"0","CLASSIFICATION_TYPE":"U","TIME_SYSTEM":"UTC","NORAD_CAT_ID":"46074","MEAN_ANOMALY":"284.7453","MEAN_MOTION":"15.06387507","ARG_OF_PERICENTER":"75.3697","APOAPSIS":"548.255","SITE":"AFETR","RCS_SIZE":"LARGE","INCLINATION":"53.0546","PERIAPSIS":"546.248","RA_OF_ASC_NODE":"98.1934","CENTER_NAME":"EARTH","REF_FRAME":"TEME","BSTAR":"-0.00000403780000","OBJECT_ID":"2020-055AZ","OBJECT_NAME":"STARLINK-1549","LAUNCH_DATE":"2020-08-07","MEAN_ELEMENT_THEORY":"SGP4","MEAN_MOTION_DOT":"-0.00000342","REV_AT_EPOCH":"7959"},{"TLE_LINE1":"1 46075U 20055BA  22005.76533053 -.00000714  00000-0 -29054-4 0  9993","TLE_LINE2":"2 46075  53.0539  97.7859 0001250  92.8736 267.2396 15.06393907 79618","DECAY_DATE":null,"GP_ID":"193283455","SEMIMAJOR_AXIS":"6925.367","MEAN_MOTION_DDOT":"0.0000000000000","ECCENTRICITY":"0.00012500","FILE":"3265018","OBJECT_TYPE":"PAYLOAD","EPOCH":"2022-01-05T18:22:04.557792","ELEMENT_SET_NO":"999","NORAD_CAT_ID":"46075","MEAN_ANOMALY":"267.2396","TIME_SYSTEM":"UTC","EPHEMERIS_TYPE":"0","COUNTRY_CODE":"US","PERIOD":"95.593","CLASSIFICATION_TYPE":"U","REF_FRAME":"TEME","CENTER_NAME":"EARTH","BSTAR":"-0.00002905400000","SITE":"AFETR","APOAPSIS":"548.098","MEAN_MOTION":"15.06393907","ARG_OF_PERICENTER":"92.8736","INCLINATION":"53.0539","PERIAPSIS":"546.367","RA_OF_ASC_NODE":"97.7859","RCS_SIZE":"LARGE","MEAN_ELEMENT_THEORY":"SGP4","MEAN_MOTION_DOT":"-0.00000714","REV_AT_EPOCH":"7961","OBJECT_ID":"2020-055BA","OBJECT_NAME":"STARLINK-1551","LAUNCH_DATE":"2020-08-07"},{"FILE":"3265018","ECCENTRICITY":"0.00012740","OBJECT_TYPE":"PAYLOAD","EPOCH":"2022-01-05T14:12:36.199296","ELEMENT_SET_NO":"999","TLE_LINE1":"1 46076U 20055BB  22005.59208564 -.00000104  00000-0  11893-4 0  9995","DECAY_DATE":null,"TLE_LINE2":"2 46076  53.0550  98.5666 0001274  82.1888 277.9246 15.06394518 79579","SEMIMAJOR_AXIS":"6925.365","GP_ID":"193284202","MEAN_MOTION_DDOT":"0.0000000000000","EPHEMERIS_TYPE":"0","PERIOD":"95.592","COUNTRY_CODE":"US","CLASSIFICATION_TYPE":"U","MEAN_ANOMALY":"277.9246","NORAD_CAT_ID":"46076","TIME_SYSTEM":"UTC","SITE":"AFETR","APOAPSIS":"548.113","ARG_OF_PERICENTER":"82.1888","MEAN_MOTION":"15.06394518","PERIAPSIS":"546.348","RA_OF_ASC_NODE":"98.5666","INCLINATION":"53.0550","RCS_SIZE":"LARGE","REF_FRAME":"TEME","CENTER_NAME":"EARTH","BSTAR":"0.00001189300000","OBJECT_NAME":"STARLINK-1552","OBJECT_ID":"2020-055BB","LAUNCH_DATE":"2020-08-07","MEAN_ELEMENT_THEORY":"SGP4","REV_AT_EPOCH":"7957","MEAN_MOTION_DOT":"-0.00000104"},{"MEAN_ELEMENT_THEORY":"SGP4","REV_AT_EPOCH":"7955","MEAN_MOTION_DOT":"-0.00000019","OBJECT_NAME":"STARLINK-1559","OBJECT_ID":"2020-055BC","LAUNCH_DATE":"2020-08-07","REF_FRAME":"TEME","CENTER_NAME":"EARTH","BSTAR":"0.00001765000000","SITE":"AFETR","APOAPSIS":"548.100","ARG_OF_PERICENTER":"83.1878","MEAN_MOTION":"15.06391961","PERIAPSIS":"546.377","RA_OF_ASC_NODE":"98.3363","INCLINATION":"53.0539","RCS_SIZE":"LARGE","MEAN_ANOMALY":"276.9253","NORAD_CAT_ID":"46077","TIME_SYSTEM":"UTC","EPHEMERIS_TYPE":"0","PERIOD":"95.593","COUNTRY_CODE":"US","CLASSIFICATION_TYPE":"U","TLE_LINE1":"1 46077U 20055BC  22005.64000465 -.00000019  00000-0  17650-4 0  9994","DECAY_DATE":null,"TLE_LINE2":"2 46077  53.0539  98.3363 0001244  83.1878 276.9253 15.06391961 79550","GP_ID":"193284421","SEMIMAJOR_AXIS":"6925.373","MEAN_MOTION_DDOT":"0.0000000000000","ECCENTRICITY":"0.00012440","FILE":"3265018","OBJECT_TYPE":"PAYLOAD","EPOCH":"2022-01-05T15:21:36.401760","ELEMENT_SET_NO":"999"},{"BSTAR":"-0.00006339700000","REF_FRAME":"TEME","CENTER_NAME":"EARTH","RA_OF_ASC_NODE":"97.8560","PERIAPSIS":"546.020","INCLINATION":"53.0548","RCS_SIZE":"LARGE","SITE":"AFETR","APOAPSIS":"548.475","ARG_OF_PERICENTER":"87.6474","MEAN_MOTION":"15.06388879","REV_AT_EPOCH":"7958","MEAN_MOTION_DOT":"-0.00001225","MEAN_ELEMENT_THEORY":"SGP4","LAUNCH_DATE":"2020-08-07","OBJECT_NAME":"STARLINK-1563","OBJECT_ID":"2020-055BD","DECAY_DATE":null,"TLE_LINE2":"2 46078  53.0548  97.8560 0001772  87.6474 272.4718 15.06388879 79585","GP_ID":"193283204","SEMIMAJOR_AXIS":"6925.383","MEAN_MOTION_DDOT":"0.0000000000000","TLE_LINE1":"1 46078U 20055BD  22005.75058635 -.00001225  00000-0 -63397-4 0  9999","ELEMENT_SET_NO":"999","FILE":"3265018","ECCENTRICITY":"0.00017720","OBJECT_TYPE":"PAYLOAD","EPOCH":"2022-01-05T18:00:50.660640","MEAN_ANOMALY":"272.4718","NORAD_CAT_ID":"46078","TIME_SYSTEM":"UTC","CLASSIFICATION_TYPE":"U","EPHEMERIS_TYPE":"0","PERIOD":"95.593","COUNTRY_CODE":"US"},{"RCS_SIZE":"LARGE","INCLINATION":"53.0546","PERIAPSIS":"546.430","RA_OF_ASC_NODE":"98.7745","MEAN_MOTION":"15.06393617","ARG_OF_PERICENTER":"93.2879","APOAPSIS":"548.036","SITE":"AFETR","BSTAR":"-0.00011765000000","CENTER_NAME":"EARTH","REF_FRAME":"TEME","LAUNCH_DATE":"2020-08-07","OBJECT_ID":"2020-055BE","OBJECT_NAME":"STARLINK-1566","MEAN_MOTION_DOT":"-0.00002033","REV_AT_EPOCH":"7958","MEAN_ELEMENT_THEORY":"SGP4","ELEMENT_SET_NO":"999","EPOCH":"2022-01-05T13:03:36.802080","OBJECT_TYPE":"PAYLOAD","ECCENTRICITY":"0.00011590","FILE":"3264673","GP_ID":"193250325","SEMIMAJOR_AXIS":"6925.368","MEAN_MOTION_DDOT":"0.0000000000000","TLE_LINE2":"2 46079  53.0546  98.7745 0001159  93.2879 266.8243 15.06393617 79586","DECAY_DATE":null,"TLE_LINE1":"1 46079U 20055BE  22005.54417595 -.00002033  00000-0 -11765-3 0  9990","CLASSIFICATION_TYPE":"U","COUNTRY_CODE":"US","PERIOD":"95.593","EPHEMERIS_TYPE":"0","TIME_SYSTEM":"UTC","NORAD_CAT_ID":"46079","MEAN_ANOMALY":"266.8243"},{"BSTAR":"0.00006129400000","CENTER_NAME":"EARTH","REF_FRAME":"TEME","RCS_SIZE":"LARGE","INCLINATION":"53.0536","PERIAPSIS":"546.278","RA_OF_ASC_NODE":"98.0653","MEAN_MOTION":"15.06397462","ARG_OF_PERICENTER":"80.3696","SITE":"AFETR","APOAPSIS":"548.165","MEAN_MOTION_DOT":"0.00000632","REV_AT_EPOCH":"7958","MEAN_ELEMENT_THEORY":"SGP4","LAUNCH_DATE":"2020-08-07","OBJECT_ID":"2020-055BF","OBJECT_NAME":"STARLINK-1568","GP_ID":"193283703","SEMIMAJOR_AXIS":"6925.356","MEAN_MOTION_DDOT":"0.0000000000000","TLE_LINE2":"2 46080  53.0536  98.0653 0001362  80.3696 279.7447 15.06397462 79589","DECAY_DATE":null,"TLE_LINE1":"1 46080U 20055BF  22005.70266117  .00000632  00000-0  61294-4 0  9996","ELEMENT_SET_NO":"999","EPOCH":"2022-01-05T16:51:49.925088","OBJECT_TYPE":"PAYLOAD","ECCENTRICITY":"0.00013620","FILE":"3265018","TIME_SYSTEM":"UTC","NORAD_CAT_ID":"46080","MEAN_ANOMALY":"279.7447","CLASSIFICATION_TYPE":"U","COUNTRY_CODE":"US","PERIOD":"95.592","EPHEMERIS_TYPE":"0"}];
